{
  "type": "FeatureCollection",
  "features": [
    {
      "type": "Feature",
      "properties": {
        "norad_id": 40118,
        "name": "GAOFEN-2",
        "group": "resource",
        "lat": -67.77955034332855,
        "lon": -147.85078212587314,
        "alt_km": 640.1399635200132,
        "timestamp": "2025-12-19T04:59:47.957729+00:00",
        "meta_object_name": "GAOFEN-2",
        "meta_object_id": "2014-049A",
        "meta_epoch": "2025-12-18T23:00:34.068096",
        "meta_mean_motion": 14.8061996,
        "meta_eccentricity": 0.00087313,
        "meta_inclination": 98.0384,
        "meta_ra_of_asc_node": 52.1385,
        "meta_arg_of_pericenter": 95.5938,
        "meta_mean_anomaly": 264.627,
        "meta_ephemeris_type": 0,
        "meta_classification_type": "U",
        "meta_norad_cat_id": 40118,
        "meta_element_set_no": 999,
        "meta_rev_at_epoch": 61256,
        "meta_bstar": 8.2227478e-05,
        "meta_mean_motion_dot": 5.78e-06,
        "meta_mean_motion_ddot": 0,
        "tle_line1": "1 40118U 14049A   25352.95872764  .00000578  00000+0  82227-4 0  9991",
        "tle_line2": "2 40118  98.0384  52.1385 0008731  95.5938 264.6270 14.80619960612561"
      },
      "geometry": {
        "type": "Point",
        "coordinates": [
          -147.85078212587314,
          -67.77955034332855
        ]
      }
    },
    {
      "type": "Feature",
      "properties": {
        "norad_id": 40143,
        "name": "YAOGAN-21",
        "group": "resource",
        "lat": 45.12494858707539,
        "lon": -136.4905875161986,
        "alt_km": 493.2951585724986,
        "timestamp": "2025-12-19T04:59:47.957739+00:00",
        "meta_object_name": "YAOGAN-21",
        "meta_object_id": "2014-053A",
        "meta_epoch": "2025-12-18T23:40:52.988160",
        "meta_mean_motion": 15.23738235,
        "meta_eccentricity": 0.00092046,
        "meta_inclination": 97.1755,
        "meta_ra_of_asc_node": 36.0282,
        "meta_arg_of_pericenter": 21.5139,
        "meta_mean_anomaly": 338.6483,
        "meta_ephemeris_type": 0,
        "meta_classification_type": "U",
        "meta_norad_cat_id": 40143,
        "meta_element_set_no": 999,
        "meta_rev_at_epoch": 62749,
        "meta_bstar": 0.00015021646,
        "meta_mean_motion_dot": 3.546e-05,
        "meta_mean_motion_ddot": 0,
        "tle_line1": "1 40143U 14053A   25352.98672440  .00003546  00000+0  15022-3 0  9992",
        "tle_line2": "2 40143  97.1755  36.0282 0009204  21.5139 338.6483 15.23738235627497"
      },
      "geometry": {
        "type": "Point",
        "coordinates": [
          -136.4905875161986,
          45.12494858707539
        ]
      }
    },
    {
      "type": "Feature",
      "properties": {
        "norad_id": 40275,
        "name": "YAOGAN-22",
        "group": "resource",
        "lat": 10.239197164496694,
        "lon": -41.31597761157261,
        "alt_km": 1201.081185360842,
        "timestamp": "2025-12-19T04:59:47.957750+00:00",
        "meta_object_name": "YAOGAN-22",
        "meta_object_id": "2014-063A",
        "meta_epoch": "2025-12-18T22:39:42.108768",
        "meta_mean_motion": 13.15522946,
        "meta_eccentricity": 0.00060013,
        "meta_inclination": 100.7426,
        "meta_ra_of_asc_node": 136.4514,
        "meta_arg_of_pericenter": 233.0652,
        "meta_mean_anomaly": 126.991,
        "meta_ephemeris_type": 0,
        "meta_classification_type": "U",
        "meta_norad_cat_id": 40275,
        "meta_element_set_no": 999,
        "meta_rev_at_epoch": 53611,
        "meta_bstar": -6.887397e-06,
        "meta_mean_motion_dot": -4.9e-07,
        "meta_mean_motion_ddot": 0,
        "tle_line1": "1 40275U 14063A   25352.94423737 -.00000049  00000+0 -68874-5 0  9990",
        "tle_line2": "2 40275 100.7426 136.4514 0006001 233.0652 126.9910 13.15522946536114"
      },
      "geometry": {
        "type": "Point",
        "coordinates": [
          -41.31597761157261,
          10.239197164496694
        ]
      }
    },
    {
      "type": "Feature",
      "properties": {
        "norad_id": 40298,
        "name": "ASNARO",
        "group": "resource",
        "lat": 81.49623397746068,
        "lon": 9.095866039564388,
        "alt_km": 495.7670651141325,
        "timestamp": "2025-12-19T04:59:47.957760+00:00",
        "meta_object_name": "ASNARO",
        "meta_object_id": "2014-070A",
        "meta_epoch": "2025-12-18T23:52:47.547264",
        "meta_mean_motion": 15.19618335,
        "meta_eccentricity": 0.00057917,
        "meta_inclination": 97.3656,
        "meta_ra_of_asc_node": 68.7887,
        "meta_arg_of_pericenter": 104.8404,
        "meta_mean_anomaly": 255.3473,
        "meta_ephemeris_type": 0,
        "meta_classification_type": "U",
        "meta_norad_cat_id": 40298,
        "meta_element_set_no": 999,
        "meta_rev_at_epoch": 61664,
        "meta_bstar": 0.00030794168,
        "meta_mean_motion_dot": 6.496e-05,
        "meta_mean_motion_ddot": 0,
        "tle_line1": "1 40298U 14070A   25352.99499476  .00006496  00000+0  30794-3 0  9999",
        "tle_line2": "2 40298  97.3656  68.7887 0005791 104.8404 255.3473 15.19618335616642"
      },
      "geometry": {
        "type": "Point",
        "coordinates": [
          9.095866039564388,
          81.49623397746068
        ]
      }
    },
    {
      "type": "Feature",
      "properties": {
        "norad_id": 40310,
        "name": "YAOGAN-24",
        "group": "resource",
        "lat": 49.3656773499974,
        "lon": -46.08529247374028,
        "alt_km": 626.5893699187136,
        "timestamp": "2025-12-19T04:59:47.957770+00:00",
        "meta_object_name": "YAOGAN-24",
        "meta_object_id": "2014-072A",
        "meta_epoch": "2025-12-18T23:31:50.704608",
        "meta_mean_motion": 14.76188678,
        "meta_eccentricity": 0.00149935,
        "meta_inclination": 98.1217,
        "meta_ra_of_asc_node": 124.1067,
        "meta_arg_of_pericenter": 119.1945,
        "meta_mean_anomaly": 241.0766,
        "meta_ephemeris_type": 0,
        "meta_classification_type": "U",
        "meta_norad_cat_id": 40310,
        "meta_element_set_no": 999,
        "meta_rev_at_epoch": 59713,
        "meta_bstar": 7.7425118e-05,
        "meta_mean_motion_dot": 4.83e-06,
        "meta_mean_motion_ddot": 0,
        "tle_line1": "1 40310U 14072A   25352.98044797  .00000483  00000+0  77425-4 0  9990",
        "tle_line2": "2 40310  98.1217 124.1067 0014993 119.1945 241.0766 14.76188678597132"
      },
      "geometry": {
        "type": "Point",
        "coordinates": [
          -46.08529247374028,
          49.3656773499974
        ]
      }
    },
    {
      "type": "Feature",
      "properties": {
        "norad_id": 40336,
        "name": "CBERS 4",
        "group": "resource",
        "lat": 4.6340661934532035,
        "lon": 50.323499812326624,
        "alt_km": 775.8830420429304,
        "timestamp": "2025-12-19T04:59:47.957780+00:00",
        "meta_object_name": "CBERS 4",
        "meta_object_id": "2014-079A",
        "meta_epoch": "2025-12-18T22:17:00.792096",
        "meta_mean_motion": 14.35519369,
        "meta_eccentricity": 0.00017741,
        "meta_inclination": 98.3307,
        "meta_ra_of_asc_node": 50.7339,
        "meta_arg_of_pericenter": 105.5878,
        "meta_mean_anomaly": 254.5504,
        "meta_ephemeris_type": 0,
        "meta_classification_type": "U",
        "meta_norad_cat_id": 40336,
        "meta_element_set_no": 999,
        "meta_rev_at_epoch": 57809,
        "meta_bstar": 2.0127986e-05,
        "meta_mean_motion_dot": 1.6e-07,
        "meta_mean_motion_ddot": 0,
        "tle_line1": "1 40336U 14079A   25352.92848139  .00000016  00000+0  20128-4 0  9991",
        "tle_line2": "2 40336  98.3307  50.7339 0001774 105.5878 254.5504 14.35519369578098"
      },
      "geometry": {
        "type": "Point",
        "coordinates": [
          50.323499812326624,
          4.6340661934532035
        ]
      }
    },
    {
      "type": "Feature",
      "properties": {
        "norad_id": 40362,
        "name": "YAOGAN-26",
        "group": "resource",
        "lat": -33.908110044108454,
        "lon": 168.87109431260785,
        "alt_km": 457.1467710867946,
        "timestamp": "2025-12-19T04:59:47.957791+00:00",
        "meta_object_name": "YAOGAN-26",
        "meta_object_id": "2014-088A",
        "meta_epoch": "2025-12-18T23:23:22.471296",
        "meta_mean_motion": 15.39513504,
        "meta_eccentricity": 0.00052888,
        "meta_inclination": 97.0637,
        "meta_ra_of_asc_node": 353.4269,
        "meta_arg_of_pericenter": 11.9076,
        "meta_mean_anomaly": 348.2295,
        "meta_ephemeris_type": 0,
        "meta_classification_type": "U",
        "meta_norad_cat_id": 40362,
        "meta_element_set_no": 999,
        "meta_rev_at_epoch": 60990,
        "meta_bstar": 0.00038905548,
        "meta_mean_motion_dot": 0.00015216,
        "meta_mean_motion_ddot": 0,
        "tle_line1": "1 40362U 14088A   25352.97456564  .00015216  00000+0  38906-3 0  9992",
        "tle_line2": "2 40362  97.0637 353.4269 0005288  11.9076 348.2295 15.39513504609901"
      },
      "geometry": {
        "type": "Point",
        "coordinates": [
          168.87109431260785,
          -33.908110044108454
        ]
      }
    }
  ]
}